{
  "type": "FeatureCollection",
  "features": [
    {
      "type": "Feature",
      "properties": {
        "norad_id": 30207,
        "name": "FENGYUN 1C DEB",
        "group": "fengyun-1c-debris",
        "lat": 1.4007880601661886,
        "lon": 87.83515676168074,
        "alt_km": 1160.0104358256722,
        "timestamp": "2025-12-02T08:59:32.988851+00:00",
        "meta_object_name": "FENGYUN 1C DEB",
        "meta_object_id": "1999-025VQ",
        "meta_epoch": "2025-12-01T19:41:31.809120",
        "meta_mean_motion": 13.79121782,
        "meta_eccentricity": 0.0260192,
        "meta_inclination": 98.5739,
        "meta_ra_of_asc_node": 87.5443,
        "meta_arg_of_pericenter": 177.8485,
        "meta_mean_anomaly": 314.0389,
        "meta_ephemeris_type": 0,
        "meta_classification_type": "U",
        "meta_norad_cat_id": 30207,
        "meta_element_set_no": 999,
        "meta_rev_at_epoch": 94912,
        "meta_bstar": 0.00033722,
        "meta_mean_motion_dot": 4.07e-06,
        "meta_mean_motion_ddot": 0,
        "tle_line1": "1 30207U 99025VQ  25335.82050705  .00000407  00000+0  33722-3 0  9992",
        "tle_line2": "2 30207  98.5739  87.5443 0260192 177.8485 314.0389 13.79121782949120"
      },
      "geometry": {
        "type": "Point",
        "coordinates": [
          87.83515676168074,
          1.4007880601661886
        ]
      }
    },
    {
      "type": "Feature",
      "properties": {
        "norad_id": 30208,
        "name": "FENGYUN 1C DEB",
        "group": "fengyun-1c-debris",
        "lat": -4.141847642608233,
        "lon": -21.7472177368827,
        "alt_km": 803.1560571102955,
        "timestamp": "2025-12-02T08:59:32.988862+00:00",
        "meta_object_name": "FENGYUN 1C DEB",
        "meta_object_id": "1999-025VR",
        "meta_epoch": "2025-12-01T23:11:21.140160",
        "meta_mean_motion": 14.23485933,
        "meta_eccentricity": 0.0033165,
        "meta_inclination": 98.5615,
        "meta_ra_of_asc_node": 337.2303,
        "meta_arg_of_pericenter": 302.5311,
        "meta_mean_anomaly": 121.0501,
        "meta_ephemeris_type": 0,
        "meta_classification_type": "U",
        "meta_norad_cat_id": 30208,
        "meta_element_set_no": 999,
        "meta_rev_at_epoch": 97684,
        "meta_bstar": 0.00058732,
        "meta_mean_motion_dot": 1.3e-05,
        "meta_mean_motion_ddot": 0,
        "tle_line1": "1 30208U 99025VR  25335.96621690  .00001300  00000+0  58732-3 0  9996",
        "tle_line2": "2 30208  98.5615 337.2303 0033165 302.5311 121.0501 14.23485933976849"
      },
      "geometry": {
        "type": "Point",
        "coordinates": [
          -21.7472177368827,
          -4.141847642608233
        ]
      }
    },
    {
      "type": "Feature",
      "properties": {
        "norad_id": 30209,
        "name": "FENGYUN 1C DEB",
        "group": "fengyun-1c-debris",
        "lat": 13.901439771947333,
        "lon": -28.693030526824266,
        "alt_km": 857.6334847838725,
        "timestamp": "2025-12-02T08:59:32.988872+00:00",
        "meta_object_name": "FENGYUN 1C DEB",
        "meta_object_id": "1999-025VS",
        "meta_epoch": "2025-12-01T13:05:24.122976",
        "meta_mean_motion": 14.12873087,
        "meta_eccentricity": 0.00385764,
        "meta_inclination": 98.7137,
        "meta_ra_of_asc_node": 332.6754,
        "meta_arg_of_pericenter": 271.4667,
        "meta_mean_anomaly": 206.6945,
        "meta_ephemeris_type": 0,
        "meta_classification_type": "U",
        "meta_norad_cat_id": 30209,
        "meta_element_set_no": 999,
        "meta_rev_at_epoch": 97048,
        "meta_bstar": 0.00049494556,
        "meta_mean_motion_dot": 8.84e-06,
        "meta_mean_motion_ddot": 0,
        "tle_line1": "1 30209U 99025VS  25335.54541809  .00000884  00000+0  49495-3 0  9996",
        "tle_line2": "2 30209  98.7137 332.6754 0038576 271.4667 206.6945 14.12873087970484"
      },
      "geometry": {
        "type": "Point",
        "coordinates": [
          -28.693030526824266,
          13.901439771947333
        ]
      }
    },
    {
      "type": "Feature",
      "properties": {
        "norad_id": 30210,
        "name": "FENGYUN 1C DEB",
        "group": "fengyun-1c-debris",
        "lat": -13.350669695808701,
        "lon": -156.26940799254334,
        "alt_km": 833.6951439885552,
        "timestamp": "2025-12-02T08:59:32.988882+00:00",
        "meta_object_name": "FENGYUN 1C DEB",
        "meta_object_id": "1999-025VT",
        "meta_epoch": "2025-12-01T15:38:56.489280",
        "meta_mean_motion": 14.08229895,
        "meta_eccentricity": 0.00568376,
        "meta_inclination": 99.1919,
        "meta_ra_of_asc_node": 25.1971,
        "meta_arg_of_pericenter": 166.7521,
        "meta_mean_anomaly": 324.8181,
        "meta_ephemeris_type": 0,
        "meta_classification_type": "U",
        "meta_norad_cat_id": 30210,
        "meta_element_set_no": 999,
        "meta_rev_at_epoch": 96601,
        "meta_bstar": 0.00068194165,
        "meta_mean_motion_dot": 1.136e-05,
        "meta_mean_motion_ddot": 0,
        "tle_line1": "1 30210U 99025VT  25335.65204270  .00001136  00000+0  68194-3 0  9996",
        "tle_line2": "2 30210  99.1919  25.1971 0056837 166.7521 324.8181 14.08229895966015"
      },
      "geometry": {
        "type": "Point",
        "coordinates": [
          -156.26940799254334,
          -13.350669695808701
        ]
      }
    },
    {
      "type": "Feature",
      "properties": {
        "norad_id": 30212,
        "name": "FENGYUN 1C DEB",
        "group": "fengyun-1c-debris",
        "lat": 40.35606328387855,
        "lon": 29.600871760854485,
        "alt_km": 942.5596276590422,
        "timestamp": "2025-12-02T08:59:32.988893+00:00",
        "meta_object_name": "FENGYUN 1C DEB",
        "meta_object_id": "1999-025VV",
        "meta_epoch": "2025-12-01T13:24:46.943424",
        "meta_mean_motion": 13.97036343,
        "meta_eccentricity": 0.00968387,
        "meta_inclination": 99.4581,
        "meta_ra_of_asc_node": 200.6188,
        "meta_arg_of_pericenter": 267.8272,
        "meta_mean_anomaly": 91.1798,
        "meta_ephemeris_type": 0,
        "meta_classification_type": "U",
        "meta_norad_cat_id": 30212,
        "meta_element_set_no": 999,
        "meta_rev_at_epoch": 96069,
        "meta_bstar": 0.00061240441,
        "meta_mean_motion_dot": 8.41e-06,
        "meta_mean_motion_ddot": 0,
        "tle_line1": "1 30212U 99025VV  25335.55887666  .00000841  00000+0  61240-3 0  9990",
        "tle_line2": "2 30212  99.4581 200.6188 0096838 267.8272  91.1798 13.97036343960693"
      },
      "geometry": {
        "type": "Point",
        "coordinates": [
          29.600871760854485,
          40.35606328387855
        ]
      }
    },
    {
      "type": "Feature",
      "properties": {
        "norad_id": 30213,
        "name": "FENGYUN 1C DEB",
        "group": "fengyun-1c-debris",
        "lat": 31.182944841305364,
        "lon": 47.063518273811404,
        "alt_km": 877.0709900510974,
        "timestamp": "2025-12-02T08:59:32.988903+00:00",
        "meta_object_name": "FENGYUN 1C DEB",
        "meta_object_id": "1999-025VW",
        "meta_epoch": "2025-12-01T19:49:03.167904",
        "meta_mean_motion": 14.11474667,
        "meta_eccentricity": 0.0070754,
        "meta_inclination": 99.1241,
        "meta_ra_of_asc_node": 52.0872,
        "meta_arg_of_pericenter": 274.2411,
        "meta_mean_anomaly": 208.8916,
        "meta_ephemeris_type": 0,
        "meta_classification_type": "U",
        "meta_norad_cat_id": 30213,
        "meta_element_set_no": 999,
        "meta_rev_at_epoch": 96361,
        "meta_bstar": 0.00162,
        "meta_mean_motion_dot": 2.96e-05,
        "meta_mean_motion_ddot": 0,
        "tle_line1": "1 30213U 99025VW  25335.82573111  .00002960  00000+0  16200-2 0  9997",
        "tle_line2": "2 30213  99.1241  52.0872 0070754 274.2411 208.8916 14.11474667963615"
      },
      "geometry": {
        "type": "Point",
        "coordinates": [
          47.063518273811404,
          31.182944841305364
        ]
      }
    },
    {
      "type": "Feature",
      "properties": {
        "norad_id": 30214,
        "name": "FENGYUN 1C DEB",
        "group": "fengyun-1c-debris",
        "lat": -26.60688300144025,
        "lon": -134.92472610242453,
        "alt_km": 804.9729699990339,
        "timestamp": "2025-12-02T08:59:32.988914+00:00",
        "meta_object_name": "FENGYUN 1C DEB",
        "meta_object_id": "1999-025VX",
        "meta_epoch": "2025-11-30T16:27:25.260192",
        "meta_mean_motion": 14.30757233,
        "meta_eccentricity": 0.00218328,
        "meta_inclination": 98.7249,
        "meta_ra_of_asc_node": 47.7925,
        "meta_arg_of_pericenter": 81.2034,
        "meta_mean_anomaly": 70.8763,
        "meta_ephemeris_type": 0,
        "meta_classification_type": "U",
        "meta_norad_cat_id": 30214,
        "meta_element_set_no": 999,
        "meta_rev_at_epoch": 97394,
        "meta_bstar": 0.0017901745,
        "meta_mean_motion_dot": 4.657e-05,
        "meta_mean_motion_ddot": 0,
        "tle_line1": "1 30214U 99025VX  25334.68570903  .00004657  00000+0  17902-2 0  9992",
        "tle_line2": "2 30214  98.7249  47.7925 0021832  81.2034  70.8763 14.30757233973947"
      },
      "geometry": {
        "type": "Point",
        "coordinates": [
          -134.92472610242453,
          -26.60688300144025
        ]
      }
    }
  ]
}